[{"OBJECT_NAME":"STARLINK-33844","OBJECT_ID":"2025-089T","EPOCH":"2025-09-30T04:28:41.007072","MEAN_MOTION":15.2763219,"ECCENTRICITY":8.522e-5,"INCLINATION":42.9982,"RA_OF_ASC_NODE":231.4138,"ARG_OF_PERICENTER":271.2669,"MEAN_ANOMALY":88.8085,"EPHEMERIS_TYPE":0,"CLASSIFICATION_TYPE":"U","NORAD_CAT_ID":63768,"ELEMENT_SET_NO":999,"REV_AT_EPOCH":2441,"BSTAR":0.0017322197,"MEAN_MOTION_DOT":0.0004779,"MEAN_MOTION_DDOT":0},{"OBJECT_NAME":"STARLINK-33907","OBJECT_ID":"2025-089U","EPOCH":"2025-09-30T06:37:59.575008","MEAN_MOTION":15.27625739,"ECCENTRICITY":0.00014889,"INCLINATION":43.0034,"RA_OF_ASC_NODE":231.2331,"ARG_OF_PERICENTER":278.5847,"MEAN_ANOMALY":81.4836,"EPHEMERIS_TYPE":0,"CLASSIFICATION_TYPE":"U","NORAD_CAT_ID":63769,"ELEMENT_SET_NO":999,"REV_AT_EPOCH":2437,"BSTAR":0.0019118081,"MEAN_MOTION_DOT":0.00052798,"MEAN_MOTION_DDOT":0},{"OBJECT_NAME":"STARLINK-33884","OBJECT_ID":"2025-089V","EPOCH":"2025-09-30T04:30:31.951584","MEAN_MOTION":15.2763172,"ECCENTRICITY":9.959e-5,"INCLINATION":42.9974,"RA_OF_ASC_NODE":231.4195,"ARG_OF_PERICENTER":283.3801,"MEAN_ANOMALY":76.694,"EPHEMERIS_TYPE":0,"CLASSIFICATION_TYPE":"U","NORAD_CAT_ID":63770,"ELEMENT_SET_NO":999,"REV_AT_EPOCH":2436,"BSTAR":0.0019936838,"MEAN_MOTION_DOT":0.00055098,"MEAN_MOTION_DDOT":0},{"OBJECT_NAME":"STARLINK-33841","OBJECT_ID":"2025-089W","EPOCH":"2025-09-30T06:15:47.243808","MEAN_MOTION":15.27628953,"ECCENTRICITY":0.00013213,"INCLINATION":43.0008,"RA_OF_ASC_NODE":231.1134,"ARG_OF_PERICENTER":268.9385,"MEAN_ANOMALY":91.1315,"EPHEMERIS_TYPE":0,"CLASSIFICATION_TYPE":"U","NORAD_CAT_ID":63771,"ELEMENT_SET_NO":999,"REV_AT_EPOCH":2437,"BSTAR":0.0020545728,"MEAN_MOTION_DOT":0.00056797,"MEAN_MOTION_DDOT":0},{"OBJECT_NAME":"STARLINK-33769","OBJECT_ID":"2025-089X","EPOCH":"2025-09-30T06:00:58.995648","MEAN_MOTION":15.27619586,"ECCENTRICITY":0.00014319,"INCLINATION":42.9992,"RA_OF_ASC_NODE":231.0312,"ARG_OF_PERICENTER":274.3206,"MEAN_ANOMALY":85.7482,"EPHEMERIS_TYPE":0,"CLASSIFICATION_TYPE":"U","NORAD_CAT_ID":63773,"ELEMENT_SET_NO":999,"REV_AT_EPOCH":2441,"BSTAR":0.0021920015,"MEAN_MOTION_DOT":0.00060628,"MEAN_MOTION_DDOT":0},{"OBJECT_NAME":"STARLINK-33914","OBJECT_ID":"2025-089Y","EPOCH":"2025-09-30T05:43:10.156800","MEAN_MOTION":15.27659464,"ECCENTRICITY":0.00016894,"INCLINATION":42.9987,"RA_OF_ASC_NODE":227.4406,"ARG_OF_PERICENTER":263.1419,"MEAN_ANOMALY":96.924,"EPHEMERIS_TYPE":0,"CLASSIFICATION_TYPE":"U","NORAD_CAT_ID":63774,"ELEMENT_SET_NO":999,"REV_AT_EPOCH":2446,"BSTAR":0.0024107944,"MEAN_MOTION_DOT":0.00066844,"MEAN_MOTION_DDOT":0},{"OBJECT_NAME":"STARLINK-33932","OBJECT_ID":"2025-091A","EPOCH":"2025-09-30T05:30:10.456416","MEAN_MOTION":15.27636329,"ECCENTRICITY":0.00023868,"INCLINATION":43.0054,"RA_OF_ASC_NODE":238.5673,"ARG_OF_PERICENTER":235.2576,"MEAN_ANOMALY":124.8051,"EPHEMERIS_TYPE":0,"CLASSIFICATION_TYPE":"U","NORAD_CAT_ID":63775,"ELEMENT_SET_NO":999,"REV_AT_EPOCH":2440,"BSTAR":0.0016794127,"MEAN_MOTION_DOT":0.00046324,"MEAN_MOTION_DDOT":0},{"OBJECT_NAME":"STARLINK-33930","OBJECT_ID":"2025-091B","EPOCH":"2025-09-30T06:20:08.356704","MEAN_MOTION":15.27619739,"ECCENTRICITY":0.00014075,"INCLINATION":42.9992,"RA_OF_ASC_NODE":238.833,"ARG_OF_PERICENTER":276.7558,"MEAN_ANOMALY":83.3134,"EPHEMERIS_TYPE":0,"CLASSIFICATION_TYPE":"U","NORAD_CAT_ID":63776,"ELEMENT_SET_NO":999,"REV_AT_EPOCH":2436,"BSTAR":0.0015173193,"MEAN_MOTION_DOT":0.00041779,"MEAN_MOTION_DDOT":0},{"OBJECT_NAME":"STARLINK-33911","OBJECT_ID":"2025-091C","EPOCH":"2025-09-30T05:26:01.921632","MEAN_MOTION":15.27591261,"ECCENTRICITY":0.00027834,"INCLINATION":43.0044,"RA_OF_ASC_NODE":231.5855,"ARG_OF_PERICENTER":234.8516,"MEAN_ANOMALY":125.2076,"EPHEMERIS_TYPE":0,"CLASSIFICATION_TYPE":"U","NORAD_CAT_ID":63777,"ELEMENT_SET_NO":999,"REV_AT_EPOCH":2444,"BSTAR":0.0015343321,"MEAN_MOTION_DOT":0.00042218,"MEAN_MOTION_DDOT":0},{"OBJECT_NAME":"STARLINK-33938","OBJECT_ID":"2025-091D","EPOCH":"2025-09-30T05:54:13.526496","MEAN_MOTION":15.27632577,"ECCENTRICITY":0.00027757,"INCLINATION":43.0021,"RA_OF_ASC_NODE":238.7003,"ARG_OF_PERICENTER":249.1543,"MEAN_ANOMALY":110.9011,"EPHEMERIS_TYPE":0,"CLASSIFICATION_TYPE":"U","NORAD_CAT_ID":63778,"ELEMENT_SET_NO":999,"REV_AT_EPOCH":2445,"BSTAR":0.0015262486,"MEAN_MOTION_DOT":0.00042047,"MEAN_MOTION_DDOT":0},{"OBJECT_NAME":"STARLINK-33881","OBJECT_ID":"2025-091E","EPOCH":"2025-09-30T06:29:23.460288","MEAN_MOTION":15.27636202,"ECCENTRICITY":0.00016079,"INCLINATION":43.0002,"RA_OF_ASC_NODE":238.8805,"ARG_OF_PERICENTER":246.1026,"MEAN_ANOMALY":113.9657,"EPHEMERIS_TYPE":0,"CLASSIFICATION_TYPE":"U","NORAD_CAT_ID":63779,"ELEMENT_SET_NO":999,"REV_AT_EPOCH":2436,"BSTAR":0.0019335519,"MEAN_MOTION_DOT":0.00053423,"MEAN_MOTION_DDOT":0},{"OBJECT_NAME":"STARLINK-33846","OBJECT_ID":"2025-091F","EPOCH":"2025-09-30T06:14:35.268288","MEAN_MOTION":15.27636348,"ECCENTRICITY":0.00015472,"INCLINATION":43.0007,"RA_OF_ASC_NODE":238.8023,"ARG_OF_PERICENTER":272.6118,"MEAN_ANOMALY":87.4557,"EPHEMERIS_TYPE":0,"CLASSIFICATION_TYPE":"U","NORAD_CAT_ID":63780,"ELEMENT_SET_NO":999,"REV_AT_EPOCH":2441,"BSTAR":0.0023623529,"MEAN_MOTION_DOT":0.00065436,"MEAN_MOTION_DDOT":0},{"OBJECT_NAME":"STARLINK-33883","OBJECT_ID":"2025-091G","EPOCH":"2025-09-30T04:34:54.716448","MEAN_MOTION":15.27642461,"ECCENTRICITY":0.00018967,"INCLINATION":42.9989,"RA_OF_ASC_NODE":239.1416,"ARG_OF_PERICENTER":254.7423,"MEAN_ANOMALY":105.3219,"EPHEMERIS_TYPE":0,"CLASSIFICATION_TYPE":"U","NORAD_CAT_ID":63781,"ELEMENT_SET_NO":999,"REV_AT_EPOCH":2435,"BSTAR":0.0021726782,"MEAN_MOTION_DOT":0.0006013,"MEAN_MOTION_DDOT":0},{"OBJECT_NAME":"STARLINK-33842","OBJECT_ID":"2025-091H","EPOCH":"2025-09-30T05:48:41.201856","MEAN_MOTION":15.27675123,"ECCENTRICITY":0.00020946,"INCLINATION":43.0021,"RA_OF_ASC_NODE":238.6737,"ARG_OF_PERICENTER":264.8384,"MEAN_ANOMALY":95.2229,"EPHEMERIS_TYPE":0,"CLASSIFICATION_TYPE":"U","NORAD_CAT_ID":63782,"ELEMENT_SET_NO":999,"REV_AT_EPOCH":2445,"BSTAR":0.0021644683,"MEAN_MOTION_DOT":0.0005996,"MEAN_MOTION_DDOT":0},{"OBJECT_NAME":"STARLINK-33892","OBJECT_ID":"2025-091J","EPOCH":"2025-09-30T05:46:50.015424","MEAN_MOTION":15.2765251,"ECCENTRICITY":0.00019199,"INCLINATION":43.0032,"RA_OF_ASC_NODE":238.6599,"ARG_OF_PERICENTER":267.6266,"MEAN_ANOMALY":92.4366,"EPHEMERIS_TYPE":0,"CLASSIFICATION_TYPE":"U","NORAD_CAT_ID":63783,"ELEMENT_SET_NO":999,"REV_AT_EPOCH":2436,"BSTAR":0.0022983985,"MEAN_MOTION_DOT":0.00063674,"MEAN_MOTION_DDOT":0},{"OBJECT_NAME":"STARLINK-33933","OBJECT_ID":"2025-091K","EPOCH":"2025-09-30T05:48:13.008672","MEAN_MOTION":15.27623334,"ECCENTRICITY":0.00018654,"INCLINATION":42.9963,"RA_OF_ASC_NODE":231.7086,"ARG_OF_PERICENTER":244.8408,"MEAN_ANOMALY":115.2251,"EPHEMERIS_TYPE":0,"CLASSIFICATION_TYPE":"U","NORAD_CAT_ID":63784,"ELEMENT_SET_NO":999,"REV_AT_EPOCH":2455,"BSTAR":0.0019110254,"MEAN_MOTION_DOT":0.00052773,"MEAN_MOTION_DDOT":0}]
