STARLINK-33844          
1 63768U 25089T   25273.18658573  .00047790  00000+0  17322-2 0  9999
2 63768  42.9982 231.4138 0000852 271.2669  88.8085 15.27632190 24410
STARLINK-33907          
1 63769U 25089U   25273.27638397  .00052798  00000+0  19118-2 0  9991
2 63769  43.0034 231.2331 0001488 278.5847  81.4836 15.27625739 24377
STARLINK-33884          
1 63770U 25089V   25273.18786981  .00055098  00000+0  19937-2 0  9991
2 63770  42.9974 231.4195 0000995 283.3801  76.6940 15.27631720 24364
STARLINK-33841          
1 63771U 25089W   25273.26096347  .00056797  00000+0  20546-2 0  9996
2 63771  43.0008 231.1134 0001321 268.9385  91.1315 15.27628953 24378
STARLINK-33769          
1 63773U 25089X   25273.25068282  .00060628  00000+0  21920-2 0  9999
2 63773  42.9992 231.0312 0001431 274.3206  85.7482 15.27619586 24413
STARLINK-33914          
1 63774U 25089Y   25273.23831200  .00066844  00000+0  24108-2 0  9993
2 63774  42.9987 227.4406 0001689 263.1419  96.9240 15.27659464 24468
STARLINK-33932          
1 63775U 25091A   25273.22928769  .00046324  00000+0  16794-2 0  9996
2 63775  43.0054 238.5673 0002386 235.2576 124.8051 15.27636329 24404
STARLINK-33930          
1 63776U 25091B   25273.26398561  .00041779  00000+0  15173-2 0  9991
2 63776  42.9992 238.8330 0001407 276.7558  83.3134 15.27619739 24362
STARLINK-33911          
1 63777U 25091C   25273.22641113  .00042218  00000+0  15343-2 0  9990
2 63777  43.0044 231.5855 0002783 234.8516 125.2076 15.27591261 24441
STARLINK-33938          
1 63778U 25091D   25273.24598989  .00042047  00000+0  15262-2 0  9995
2 63778  43.0021 238.7003 0002775 249.1543 110.9011 15.27632577 24458
STARLINK-33881          
1 63779U 25091E   25273.27041042  .00053423  00000+0  19336-2 0  9998
2 63779  43.0002 238.8805 0001607 246.1026 113.9657 15.27636202 24363
STARLINK-33846          
1 63780U 25091F   25273.26013042  .00065436  00000+0  23624-2 0  9990
2 63780  43.0007 238.8023 0001547 272.6118  87.4557 15.27636348 24412
STARLINK-33883          
1 63781U 25091G   25273.19091107  .00060130  00000+0  21727-2 0  9999
2 63781  42.9989 239.1416 0001896 254.7423 105.3219 15.27642461 24358
STARLINK-33842          
1 63782U 25091H   25273.24214354  .00059960  00000+0  21645-2 0  9995
2 63782  43.0021 238.6737 0002094 264.8384  95.2229 15.27675123 24457
STARLINK-33892          
1 63783U 25091J   25273.24085666  .00063674  00000+0  22984-2 0  9992
2 63783  43.0032 238.6599 0001919 267.6266  92.4366 15.27652510 24367
STARLINK-33933          
1 63784U 25091K   25273.24181723  .00052773  00000+0  19110-2 0  9999
2 63784  42.9963 231.7086 0001865 244.8408 115.2251 15.27623334 24559
